SCD 1                   
1 22490U 93009B   26195.30470017  .00000294  00000+0  29742-4 0  9995
2 22490  24.9704  40.1394 0042072  65.1406  95.4160 14.46128449765043
TECHSAT 1B (GO-32)      
1 25397U 98043D   26195.52935320  .00000006  00000+0  22945-4 0  9993
2 25397  99.0085 188.9795 0002171 115.5342 244.6061 14.24433285455225
SCD 2                   
1 25504U 98060A   26195.49751817  .00000275  00000+0  26177-4 0  9994
2 25504  24.9946 263.7395 0016949  52.2644 330.3985 14.45534668464280
DLR-TUBSAT              
1 25757U 99029B   26195.50502444  .00000008  00000+0  13862-4 0  9993
2 25757  98.6710 191.9098 0012959 266.9641  93.0070 14.52433211437218
TERRA                   
1 25994U 99068A   26195.82643748  .00000192  00000+0  48110-4 0  9995
2 25994  97.9442 244.2747 0003396 123.3921 325.4297 14.61123539413643
MAROC-TUBSAT            
1 27004U 01056D   26195.75191061 -.00000035  00000+0  13452-4 0  9995
2 27004  99.8097  13.1328 0020601  73.1798   5.6189 13.70263536229962
AQUA                    
1 27424U 02022A   26195.50499725  .00000358  00000+0  80864-4 0  9994
2 27424  98.4295 165.3370 0000927 111.8770   0.7592 14.62196472287266
SHIYAN-1 (SY-1)         
1 28220U 04012A   26195.18725102  .00007997  00000+0  24237-3 0  9992
2 28220  97.8691 275.0221 0004060 279.7096  80.3686 15.34436267215230
AURA                    
1 28376U 04026A   26195.85356459  .00000355  00000+0  81520-4 0  9998
2 28376  98.3430 152.5388 0001312  93.1586 266.9765 14.61367512170258
IRS-P5 (CARTOSAT-1)     
1 28649U 05017A   26195.65924852  .00000660  00000+0  71810-4 0  9998
2 28649  97.5307 217.4774 0001418  55.4415 304.6938 14.91116300147913
SINAH 1                 
1 28893U 05043D   26195.86808594  .00000128  00000+0  33770-4 0  9997
2 28893  98.2893 330.3581 0014374 184.5414 175.5660 14.64175369104573
RESURS-DK 1             
1 29228U 06021A   26195.59943744  .00000920  00000+0  57623-4 0  9997
2 29228  69.9308 268.5885 0007075 271.7724  88.2632 15.13317802106727
ARIRANG-2 (KOMPSAT-2)   
1 29268U 06031A   26195.83643701  .00000282  00000+0  61443-4 0  9995
2 29268  97.8307  18.9462 0014287 352.0887 133.6515 14.64676113 65529
LAPAN-TUBSAT            
1 29709U 07001A   26195.86269225 -.00000394  00000+0 -38463-4 0  9993
2 29709  98.1347 195.7119 0013577  94.5465 265.7301 14.85974131 55265
HAIYANG-1B              
1 31113U 07010A   26195.83314182  .00000030  00000+0  27208-4 0  9995
2 31113  98.3515 176.6086 0014624 116.7591 243.5091 14.31033272  4591
COSMO-SKYMED 1          
1 31598U 07023A   26195.80438525  .00001379  00000+0  12440-3 0  9999
2 31598  97.8845  27.8938 0001393 103.7552 256.3824 14.97218137 33925
TERRASAR-X              
1 31698U 07026A   26188.47915537  .00000240  00000+0  14624-4 0  9994
2 31698  97.4461 195.8972 0001878  86.9540 273.1909 15.19153986 56300
WORLDVIEW-1 (WV-1)      
1 32060U 07041A   26195.86125860  .00003272  00000+0  13577-3 0  9991
2 32060  97.3904 315.2163 0001495 207.7894 152.3263 15.24556383 47096
YAOGAN-3                
1 32289U 07055A   26195.84706542  .00001735  00000+0  18173-3 0  9998
2 32289  97.8147 225.4513 0001667  79.1411 280.9995 14.90883811  9999
COSMO-SKYMED 2          
1 32376U 07059A   26195.84036124  .00000170  00000+0  27863-4 0  9990
2 32376  97.8893  19.0381 0001442  94.0661 266.0717 14.82150319  6106
RADARSAT-2              
1 32382U 07061A   26195.88621881 -.00000211  00000+0 -64862-4 0  9992
2 32382  98.5778 202.4230 0001313  84.7463 275.3870 14.29982481969911
CARTOSAT-2A             
1 32783U 08021A   26195.84766769  .00000490  00000+0  72573-4 0  9990
2 32783  97.7623 243.6102 0012574  28.2518 331.9374 14.79277166982898
HUANJING 1A (HJ-1A)     
1 33320U 08041A   26195.87843162  .00000397  00000+0  53692-4 0  9993
2 33320  97.6690 180.6486 0020383  50.5872 309.7143 14.84048466962511
HUANJING 1B (HJ-1B)     
1 33321U 08041B   26195.86022520  .00000800  00000+0  10268-3 0  9990
2 33321  97.6526 183.7184 0037956  92.3396 268.2165 14.83365433962516
GEOEYE 1                
1 33331U 08042A   26195.81969351  .00000185  00000+0  43698-4 0  9999
2 33331  98.1328 269.4200 0003973 348.1021  12.0087 14.64649192954192
THEOS                   
1 33396U 08049A   26195.86932462 -.00000143  00000+0 -47374-4 0  9996
2 33396  98.5563 252.2520 0001121  87.7515 272.3790 14.20135600921899
COSMO-SKYMED 3          
1 33412U 08054A   26195.89710944  .00002289  00000+0  15646-3 0  9990
2 33412  97.8247  54.9264 0015763 167.5552 192.6068 15.07112440961110
YAOGAN-4                
1 33446U 08061A   26195.82637064  .00000448  00000+0  61398-4 0  9990
2 33446  97.9304 129.1335 0013840 346.8700  13.2151 14.83250900949762
GOSAT (IBUKI)           
1 33492U 09002A   26195.82032443  .00000301  00000+0  61531-4 0  9994
2 33492  98.0914 306.5582 0001146  87.4511 272.6824 14.67539415935510
DEIMOS-1                
1 35681U 09041A   26195.85952675  .00000200  00000+0  36537-4 0  9996
2 35681  97.7425 351.8919 0002781  92.9143 267.2385 14.75263523910967
DUBAISAT-1              
1 35682U 09041B   26195.83188822  .00000380  00000+0  63809-4 0  9991
2 35682  98.0085 328.7921 0010002 349.9572  10.1435 14.75166356909174
