OBJECT_NAME,OBJECT_ID,EPOCH,MEAN_MOTION,ECCENTRICITY,INCLINATION,RA_OF_ASC_NODE,ARG_OF_PERICENTER,MEAN_ANOMALY,EPHEMERIS_TYPE,CLASSIFICATION_TYPE,NORAD_CAT_ID,ELEMENT_SET_NO,REV_AT_EPOCH,BSTAR,MEAN_MOTION_DOT,MEAN_MOTION_DDOT
SCD 1,1993-009B,2026-07-14T07:18:46.094688,14.46128449,.00420725,24.9704,40.1394,65.1406,95.4160,0,U,22490,999,76504,.29741887E-4,.294E-5,0
TECHSAT 1B (GO-32),1998-043D,2026-07-14T12:42:16.116480,14.24433285,.00021716,99.0085,188.9795,115.5342,244.6061,0,U,25397,999,45522,.22944989E-4,.6E-7,0
SCD 2,1998-060A,2026-07-14T11:56:25.569888,14.45534668,.00169494,24.9946,263.7395,52.2644,330.3985,0,U,25504,999,46428,.26177223E-4,.275E-5,0
DLR-TUBSAT,1999-029B,2026-07-14T12:07:14.111616,14.52433211,.00129598,98.6710,191.9098,266.9641,93.0070,0,U,25757,999,43721,.1386213E-4,.8E-7,0
TERRA,1999-068A,2026-07-14T19:50:04.198272,14.61123539,.0003396,97.9442,244.2747,123.3921,325.4297,0,U,25994,999,41364,.4811E-4,.192E-5,0
MAROC-TUBSAT,2001-056D,2026-07-14T18:02:45.076704,13.70263536,.0020601,99.8097,13.1328,73.1798,5.6189,0,U,27004,999,22996,.13452E-4,-.35E-6,0
AQUA,2002-022A,2026-07-14T12:07:11.762400,14.62196472,.0000927,98.4295,165.3370,111.8770,0.7592,0,U,27424,999,28726,.80863616E-4,.358E-5,0
SHIYAN-1 (SY-1),2004-012A,2026-07-14T04:29:38.488128,15.34436267,.00040606,97.8691,275.0221,279.7096,80.3686,0,U,28220,999,21523,.24237077E-3,.7997E-4,0
AURA,2004-026A,2026-07-14T20:29:07.980576,14.61367512,.0001312,98.3430,152.5388,93.1586,266.9765,0,U,28376,999,17025,.8152E-4,.355E-5,0
IRS-P5 (CARTOSAT-1),2005-017A,2026-07-14T15:49:19.072128,14.91116300,.0001418,97.5307,217.4774,55.4415,304.6938,0,U,28649,999,14791,.7181E-4,.66E-5,0
SINAH 1,2005-043D,2026-07-14T20:50:02.625216,14.64175369,.0014374,98.2893,330.3581,184.5414,175.5660,0,U,28893,999,10457,.3377E-4,.128E-5,0
RESURS-DK 1,2006-021A,2026-07-14T14:23:11.394816,15.13317802,.0007075,69.9308,268.5885,271.7724,88.2632,0,U,29228,999,10672,.57623E-4,.92E-5,0
ARIRANG-2 (KOMPSAT-2),2006-031A,2026-07-14T20:04:28.157664,14.64676113,.0014287,97.8307,18.9462,352.0887,133.6515,0,U,29268,999,6552,.61443E-4,.282E-5,0
LAPAN-TUBSAT,2007-001A,2026-07-14T20:42:16.610400,14.85974131,.0013577,98.1347,195.7119,94.5465,265.7301,0,U,29709,999,5526,-.38463E-4,-.394E-5,0
HAIYANG-1B,2007-010A,2026-07-14T19:59:43.453248,14.31033272,.0014624,98.3515,176.6086,116.7591,243.5091,0,U,31113,999,459,.27208E-4,.3E-6,0
COSMO-SKYMED 1,2007-023A,2026-07-14T19:18:18.885600,14.97218137,.0001393,97.8845,27.8938,103.7552,256.3824,0,U,31598,999,3392,.1244E-3,.1379E-4,0
TERRASAR-X,2007-026A,2026-07-07T11:29:59.023968,15.19153986,.0001878,97.4461,195.8972,86.9540,273.1909,0,U,31698,999,5630,.14624E-4,.24E-5,0
WORLDVIEW-1 (WV-1),2007-041A,2026-07-14T20:40:12.743040,15.24556383,.0001495,97.3904,315.2163,207.7894,152.3263,0,U,32060,999,4709,.13577E-3,.3272E-4,0
YAOGAN-3,2007-055A,2026-07-14T20:19:46.452288,14.90883811,.0001667,97.8147,225.4513,79.1411,280.9995,0,U,32289,999,999,.18173E-3,.1735E-4,0
COSMO-SKYMED 2,2007-059A,2026-07-14T20:10:07.211136,14.82150319,.0001442,97.8893,19.0381,94.0661,266.0717,0,U,32376,999,610,.27863E-4,.17E-5,0
RADARSAT-2,2007-061A,2026-07-14T21:16:09.305184,14.29982481,.0001313,98.5778,202.4230,84.7463,275.3870,0,U,32382,999,96991,-.64862E-4,-.211E-5,0
CARTOSAT-2A,2008-021A,2026-07-14T20:20:38.488416,14.79277166,.0012574,97.7623,243.6102,28.2518,331.9374,0,U,32783,999,98289,.72573E-4,.49E-5,0
HUANJING 1A (HJ-1A),2008-041A,2026-07-14T21:04:56.491968,14.84048466,.0020383,97.6690,180.6486,50.5872,309.7143,0,U,33320,999,96251,.53692E-4,.397E-5,0
HUANJING 1B (HJ-1B),2008-041B,2026-07-14T20:38:43.457280,14.83365433,.0037956,97.6526,183.7184,92.3396,268.2165,0,U,33321,999,96251,.10268E-3,.8E-5,0
GEOEYE 1,2008-042A,2026-07-14T19:40:21.519264,14.64649192,.0003973,98.1328,269.4200,348.1021,12.0087,0,U,33331,999,95419,.43698E-4,.185E-5,0
THEOS,2008-049A,2026-07-14T20:51:49.647168,14.20135600,.0001121,98.5563,252.2520,87.7515,272.3790,0,U,33396,999,92189,-.47374E-4,-.143E-5,0
COSMO-SKYMED 3,2008-054A,2026-07-14T21:31:50.255616,15.07112440,.0015763,97.8247,54.9264,167.5552,192.6068,0,U,33412,999,96111,.15646E-3,.2289E-4,0
YAOGAN-4,2008-061A,2026-07-14T19:49:58.423296,14.83250900,.001384,97.9304,129.1335,346.8700,13.2151,0,U,33446,999,94976,.61398E-4,.448E-5,0
GOSAT (IBUKI),2009-002A,2026-07-14T19:41:16.030752,14.67539415,.0001146,98.0914,306.5582,87.4511,272.6824,0,U,33492,999,93551,.61531E-4,.301E-5,0
DEIMOS-1,2009-041A,2026-07-14T20:37:43.111200,14.75263523,.0002781,97.7425,351.8919,92.9143,267.2385,0,U,35681,999,91096,.36537E-4,.2E-5,0
DUBAISAT-1,2009-041B,2026-07-14T19:57:55.142208,14.75166356,.0010002,98.0085,328.7921,349.9572,10.1435,0,U,35682,999,90917,.63809E-4,.38E-5,0
